NORAD_CAT_ID,OBJECT_NAME,OBJECT_TYPE,EPOCH,MEAN_MOTION,ECCENTRICITY,INCLINATION,RA_OF_ASC_NODE,ARG_OF_PERICENTER,MEAN_ANOMALY,BSTAR,MEAN_MOTION_DOT,MEAN_MOTION_DDOT,TLE_LINE0,TLE_LINE1,TLE_LINE2,SEMIMAJOR_AXIS,PERIOD,APOGEE,PERIGEE,DECAYED
49416.0,STARLINK-3133,PAYLOAD,2024-01-07 19:23:49,15.08822415,0.0001366,53.215,184.0156,89.6985,270.4164,-9.0908e-07,-3.02e-06,0.0,0 STARLINK-3133,1 49416U 21104J   24007.80821446 -.00000302  00000-0 -90908-6 0  9997,2 49416  53.2150 184.0156 0001366  89.6985 270.4164 15.08822415119087,6917.934,95.439,540.744,538.854,0.0
49416.0,STARLINK-3133,PAYLOAD,2024-01-08 11:17:40,15.08835536,0.000127,53.2156,181.0398,108.6021,251.5109,0.00010346,1.359e-05,0.0,0 STARLINK-3133,1 49416U 21104J   24008.47060520  .00001359  00000-0  10346-3 0  9995,2 49416  53.2156 181.0398 0001270 108.6021 251.5109 15.08835536120275,6917.894,95.438,540.638,538.88,0.0
49416.0,STARLINK-3133,PAYLOAD,2024-01-08 17:39:12,15.08840675,0.0001249,53.2154,179.8515,103.4706,256.6426,0.00017445,2.49e-05,0.0,0 STARLINK-3133,1 49416U 21104J   24008.73556076  .00002490  00000-0  17445-3 0  9994,2 49416  53.2154 179.8515 0001249 103.4706 256.6426 15.08840675119229,6917.878,95.438,540.607,538.879,0.0
49416.0,STARLINK-3133,PAYLOAD,2024-01-09 14:19:12,15.08853011,0.0001206,53.2156,175.9858,96.8696,263.2434,0.00025225,3.73e-05,0.0,0 STARLINK-3133,1 49416U 21104J   24009.59667084  .00003730  00000-0  25225-3 0  9994,2 49416  53.2156 175.9858 0001206  96.8696 263.2434 15.08853011119359,6917.841,95.437,540.54,538.871,0.0
49416.0,STARLINK-3133,PAYLOAD,2024-01-09 17:29:58,15.08856399,0.0001232,53.2158,175.3913,91.9256,268.1877,0.00028668,4.28e-05,0.0,0 STARLINK-3133,1 49416U 21104J   24009.72914910  .00004280  00000-0  28668-3 0  9997,2 49416  53.2158 175.3913 0001232  91.9256 268.1877 15.08856399120465,6917.83,95.437,540.548,538.843,0.0
49416.0,STARLINK-3133,PAYLOAD,2024-01-10 10:59:13,15.08853214,0.0001655,53.2175,172.1233,78.4419,281.6759,8.3859e-05,1.047e-05,0.0,0 STARLINK-3133,1 49416U 21104J   24010.45779367  .00001047  00000-0  83859-4 0  9996,2 49416  53.2175 172.1233 0001655  78.4419 281.6759 15.08853214120578,6917.84,95.437,540.85,538.56,0.0
49416.0,STARLINK-3133,PAYLOAD,2024-01-10 17:20:46,15.08847622,0.0001272,53.2151,170.9316,74.3711,285.7421,-9.393e-07,-3.03e-06,0.0,0 STARLINK-3133,1 49416U 21104J   24010.72275645 -.00000303  00000-0 -93930-6 0  9995,2 49416  53.2151 170.9316 0001272  74.3711 285.7421 15.08847622120617,6917.857,95.437,540.602,538.842,0.0
49416.0,STARLINK-3133,PAYLOAD,2024-01-11 14:00:46,15.08851474,0.0001144,53.2163,167.0629,94.4382,265.6741,-7.9076e-05,-1.547e-05,0.0,0 STARLINK-3133,1 49416U 21104J   24011.58387017 -.00001547  00000-0 -79076-4 0  9991,2 49416  53.2163 167.0629 0001144  94.4382 265.6741 15.08851474119653,6917.845,95.437,540.502,538.919,0.0
49416.0,STARLINK-3133,PAYLOAD,2024-01-11 20:22:18,15.08854345,0.0001255,53.2158,165.8735,92.7443,267.3693,-5.0237e-05,-1.088e-05,0.0,0 STARLINK-3133,1 49416U 21104J   24011.84882534 -.00001088  00000-0 -50237-4 0  9992,2 49416  53.2158 165.8735 0001255  92.7443 267.3693 15.08854345119692,6917.837,95.437,540.57,538.833,0.0
49416.0,STARLINK-3133,PAYLOAD,2024-01-12 10:40:47,15.08836196,0.0001347,53.2178,163.1958,81.7147,278.3998,-1.0535e-06,-3.05e-06,0.0,0 STARLINK-3133,1 49416U 21104J   24012.44499652 -.00000305  00000-0 -10535-5 0  9993,2 49416  53.2178 163.1958 0001347  81.7147 278.3998 15.08836196120879,6917.892,95.438,540.689,538.825,0.0
49416.0,STARLINK-3133,PAYLOAD,2024-01-12 13:51:33,15.08837723,0.0001222,53.2177,162.6009,79.5131,280.5999,-7.8399e-06,-4.13e-06,0.0,0 STARLINK-3133,1 49416U 21104J   24012.57747584 -.00000413  00000-0 -78399-5 0  9999,2 49416  53.2177 162.6009 0001222  79.5131 280.5999 15.08837723119803,6917.887,95.438,540.598,538.907,0.0
49416.0,STARLINK-3133,PAYLOAD,2024-01-12 15:26:56,15.08837686,0.0001106,53.2177,162.3035,75.3184,284.7931,1.1853e-05,-9.9e-07,0.0,0 STARLINK-3133,1 49416U 21104J   24012.64371524 -.00000099  00000-0  11853-4 0  9994,2 49416  53.2177 162.3035 0001106  75.3184 284.7931 15.08837686119813,6917.887,95.438,540.518,538.987,0.0
49416.0,STARLINK-3133,PAYLOAD,2024-01-13 13:42:20,15.08841012,0.0001224,53.2161,158.1421,86.0122,274.101,5.8009e-05,6.35e-06,0.0,0 STARLINK-3133,1 49416U 21104J   24013.57107457  .00000635  00000-0  58009-4 0  9998,2 49416  53.2161 158.1421 0001224  86.0122 274.1010 15.08841012119954,6917.877,95.437,540.589,538.896,0.0
49416.0,STARLINK-3133,PAYLOAD,2024-01-13 18:28:30,15.08843779,0.0001294,53.2173,157.2519,88.9197,271.1944,9.5092e-05,1.226e-05,0.0,0 STARLINK-3133,1 49416U 21104J   24013.76979250  .00001226  00000-0  95092-4 0  9997,2 49416  53.2173 157.2519 0001294  88.9197 271.1944 15.08843779121076,6917.869,95.437,540.629,538.839,0.0
49416.0,STARLINK-3133,PAYLOAD,2024-01-14 08:46:58,15.08831825,0.0001176,53.2184,154.5812,78.1415,281.9709,0.00013958,1.934e-05,0.0,0 STARLINK-3133,1 49416U 21104J   24014.36596054  .00001934  00000-0  13958-3 0  9997,2 49416  53.2184 154.5812 0001176  78.1415 281.9709 15.08831825121164,6917.905,95.438,540.584,538.957,0.0
49416.0,STARLINK-3133,PAYLOAD,2024-01-14 13:33:08,15.08834622,0.0001471,53.2184,153.6867,92.6439,267.4722,4.7157e-05,4.63e-06,0.0,0 STARLINK-3133,1 49416U 21104J   24014.56468258  .00000463  00000-0  47157-4 0  9998,2 49416  53.2184 153.6867 0001471  92.6439 267.4722 15.08834622120104,6917.897,95.438,540.779,538.744,0.0
49416.0,STARLINK-3133,PAYLOAD,2024-01-14 15:08:31,15.08837647,0.0001485,53.2172,153.387,89.952,270.1642,7.6868e-05,9.36e-06,0.0,0 STARLINK-3133,1 49416U 21104J   24014.63092010  .00000936  00000-0  76868-4 0  9991,2 49416  53.2172 153.3870 0001485  89.9520 270.1642 15.08837647120110,6917.888,95.438,540.78,538.725,0.0
49416.0,STARLINK-3133,PAYLOAD,2024-01-15 08:37:45,15.08843559,0.0001275,53.2169,150.116,84.7663,275.3475,0.00010693,1.414e-05,0.0,0 STARLINK-3133,1 49416U 21104J   24015.35955632  .00001414  00000-0  10693-3 0  9994,2 49416  53.2169 150.1160 0001275  84.7663 275.3475 15.08843559121314,6917.87,95.437,540.617,538.852,0.0
49416.0,STARLINK-3133,PAYLOAD,2024-01-15 13:23:54,15.08846136,0.0001349,53.2177,149.2246,88.3096,271.8051,0.00011975,1.619e-05,0.0,0 STARLINK-3133,1 49416U 21104J   24015.55827387  .00001619  00000-0  11975-3 0  9992,2 49416  53.2177 149.2246 0001349  88.3096 271.8051 15.08846136120256,6917.862,95.437,540.66,538.793,0.0
49416.0,STARLINK-3133,PAYLOAD,2024-01-15 16:34:40,15.08849792,0.0001286,53.2171,148.6297,80.3389,279.7748,0.00016109,2.277e-05,0.0,0 STARLINK-3133,1 49416U 21104J   24015.69075105  .00002277  00000-0  16109-3 0  9995,2 49416  53.2171 148.6297 0001286  80.3389 279.7748 15.08849792120279,6917.85,95.437,540.605,538.826,0.0
49416.0,STARLINK-3133,PAYLOAD,2024-01-16 08:28:33,15.0883806,0.000143,53.2172,145.659,80.9198,279.1956,8.1249e-05,1.005e-05,0.0,0 STARLINK-3133,1 49416U 21104J   24016.35316080  .00001005  00000-0  81249-4 0  9995,2 49416  53.2172 145.6590 0001430  80.9198 279.1956 15.08838060121461,6917.886,95.438,540.741,538.762,0.0
49416.0,STARLINK-3133,PAYLOAD,2024-01-16 14:50:05,15.08842247,0.0001375,53.2163,144.4659,104.8849,255.2295,8.3387e-05,1.04e-05,0.0,0 STARLINK-3133,1 49416U 21104J   24016.61811730  .00001040  00000-0  83387-4 0  9990,2 49416  53.2163 144.4659 0001375 104.8849 255.2295 15.08842247120418,6917.874,95.437,540.69,538.787,0.0
49416.0,STARLINK-3133,PAYLOAD,2024-01-16 18:00:51,15.08846108,0.0001461,53.216,143.8693,115.5826,244.5317,0.00014898,2.084e-05,0.0,0 STARLINK-3133,1 49416U 21104J   24016.75059467  .00002084  00000-0  14898-3 0  9995,2 49416  53.2160 143.8693 0001461 115.5826 244.5317 15.08846108121525,6917.862,95.437,540.737,538.716,0.0
49416.0,STARLINK-3133,PAYLOAD,2024-01-17 11:30:06,15.08838226,0.00021,53.2181,140.5948,127.9276,232.1906,-5.9017e-05,-1.227e-05,0.0,0 STARLINK-3133,1 49416U 21104J   24017.47923875 -.00001227  00000-0 -59017-4 0  9991,2 49416  53.2181 140.5948 0002100 127.9276 232.1906 15.08838226121633,6917.886,95.438,541.204,538.298,0.0
49416.0,STARLINK-3133,PAYLOAD,2024-01-17 14:40:52,15.08841008,0.0001543,53.2165,140.0063,93.1522,266.9647,5.5306e-06,-2e-06,0.0,0 STARLINK-3133,1 49416U 21104J   24017.61172001 -.00000200  00000-0  55306-5 0  9991,2 49416  53.2165 140.0063 0001543  93.1522 266.9647 15.08841008120566,6917.877,95.437,540.81,538.675,0.0
49416.0,STARLINK-3133,PAYLOAD,2024-01-18 14:31:39,15.08843148,0.0001246,53.2155,135.5434,76.7917,283.3214,0.00020473,2.972e-05,0.0,0 STARLINK-3133,1 49416U 21104J   24018.60532124  .00002972  00000-0  20473-3 0  9999,2 49416  53.2155 135.5434 0001246  76.7917 283.3214 15.08843148120718,6917.871,95.437,540.598,538.874,0.0
49416.0,STARLINK-3133,PAYLOAD,2024-01-19 12:47:03,15.08848283,0.0001444,53.2164,131.3797,85.257,274.8587,0.00012595,1.718e-05,0.0,0 STARLINK-3133,1 49416U 21104J   24019.53267770  .00001718  00000-0  12595-3 0  9997,2 49416  53.2164 131.3797 0001444  85.2570 274.8587 15.08848283120852,6917.855,95.437,540.719,538.721,0.0
49416.0,STARLINK-3133,PAYLOAD,2024-01-20 11:02:27,15.08838213,0.0001443,53.2156,127.2166,81.628,278.4875,-1.2679e-05,-4.9e-06,0.0,0 STARLINK-3133,1 49416U 21104J   24020.46004318 -.00000490  00000-0 -12679-4 0  9990,2 49416  53.2156 127.2166 0001443  81.6280 278.4875 15.08838213122083,6917.886,95.438,540.749,538.753,0.0
49416.0,STARLINK-3133,PAYLOAD,2024-01-20 12:37:51,15.08838982,0.0001399,53.2166,126.9196,80.2008,279.9142,4.1261e-05,3.69e-06,0.0,0 STARLINK-3133,1 49416U 21104J   24020.52628613  .00000369  00000-0  41261-4 0  9999,2 49416  53.2166 126.9196 0001399  80.2008 279.9142 15.08838982121003,6917.884,95.438,540.716,538.781,0.0
49416.0,STARLINK-3133,PAYLOAD,2024-01-21 12:28:37,15.08843813,0.0001578,53.2173,122.4584,100.3745,259.7425,4.03e-05,3.53e-06,0.0,0 STARLINK-3133,1 49416U 21104J   24021.51988382  .00000353  00000-0  40300-4 0  9997,2 49416  53.2173 122.4584 0001578 100.3745 259.7425 15.08843813122240,6917.869,95.437,540.825,538.642,0.0
